[
  {
    "OBJECT_NAME": "STARLINK-31058",
    "OBJECT_ID": "23211L",
    "EPOCH": "2025-11-11T06:02:55.630464",
    "MEAN_MOTION": 15.27577617,
    "ECCENTRICITY": 0.0001097,
    "INCLINATION": 42.9974,
    "RA_OF_ASC_NODE": 33.9378,
    "ARG_OF_PERICENTER": 280.3763,
    "MEAN_ANOMALY": 79.6965,
    "EPHEMERIS_TYPE": 0,
    "CLASSIFICATION_TYPE": "U",
    "NORAD_CAT_ID": 58677,
    "ELEMENT_SET_NO": 999,
    "REV_AT_EPOCH": 10435,
    "BSTAR": 9.520600000000001e-05,
    "MEAN_MOTION_DOT": 2.359e-05,
    "MEAN_MOTION_DDOT": 0.0,
    "TLE_LINE1": "1 58677U 23211L   25315.25203276  .00002359  00000+0  95206-4 0  9999",
    "TLE_LINE2": "2 58677  42.9974  33.9378 0001097 280.3763  79.6965 15.27577617104352",
    "COMMENT": "Grouped by shell and plane from TLE"
  },
  {
    "OBJECT_NAME": "STARLINK-31125",
    "OBJECT_ID": "23211M",
    "EPOCH": "2025-11-11T06:36:13.622688",
    "MEAN_MOTION": 15.275679,
    "ECCENTRICITY": 0.0001577,
    "INCLINATION": 43.0081,
    "RA_OF_ASC_NODE": 34.107,
    "ARG_OF_PERICENTER": 284.396,
    "MEAN_ANOMALY": 75.6717,
    "EPHEMERIS_TYPE": 0,
    "CLASSIFICATION_TYPE": "U",
    "NORAD_CAT_ID": 58678,
    "ELEMENT_SET_NO": 999,
    "REV_AT_EPOCH": 10552,
    "BSTAR": 0.00012788,
    "MEAN_MOTION_DOT": 3.257e-05,
    "MEAN_MOTION_DDOT": 0.0,
    "TLE_LINE1": "1 58678U 23211M   25315.27515767  .00003257  00000+0  12788-3 0  9994",
    "TLE_LINE2": "2 58678  43.0081  34.1070 0001577 284.3960  75.6717 15.27567900105527",
    "COMMENT": "Grouped by shell and plane from TLE"
  },
  {
    "OBJECT_NAME": "STARLINK-31110",
    "OBJECT_ID": "23211N",
    "EPOCH": "2025-11-11T06:08:28.508928",
    "MEAN_MOTION": 15.27581344,
    "ECCENTRICITY": 7.79e-05,
    "INCLINATION": 42.9995,
    "RA_OF_ASC_NODE": 33.9665,
    "ARG_OF_PERICENTER": 282.6906,
    "MEAN_ANOMALY": 77.3859,
    "EPHEMERIS_TYPE": 0,
    "CLASSIFICATION_TYPE": "U",
    "NORAD_CAT_ID": 58679,
    "ELEMENT_SET_NO": 999,
    "REV_AT_EPOCH": 10435,
    "BSTAR": 0.00010321,
    "MEAN_MOTION_DOT": 2.579e-05,
    "MEAN_MOTION_DDOT": 0.0,
    "TLE_LINE1": "1 58679U 23211N   25315.25588552  .00002579  00000+0  10321-3 0  9992",
    "TLE_LINE2": "2 58679  42.9995  33.9665 0000779 282.6906  77.3859 15.27581344104355",
    "COMMENT": "Grouped by shell and plane from TLE"
  },
  {
    "OBJECT_NAME": "STARLINK-31112",
    "OBJECT_ID": "23211P",
    "EPOCH": "2025-11-11T06:19:35.059872",
    "MEAN_MOTION": 15.27580389,
    "ECCENTRICITY": 0.0001606,
    "INCLINATION": 43.0021,
    "RA_OF_ASC_NODE": 34.0235,
    "ARG_OF_PERICENTER": 271.6256,
    "MEAN_ANOMALY": 88.4412,
    "EPHEMERIS_TYPE": 0,
    "CLASSIFICATION_TYPE": "U",
    "NORAD_CAT_ID": 58680,
    "ELEMENT_SET_NO": 999,
    "REV_AT_EPOCH": 10553,
    "BSTAR": 0.00018476,
    "MEAN_MOTION_DOT": 4.826e-05,
    "MEAN_MOTION_DDOT": 0.0,
    "TLE_LINE1": "1 58680U 23211P   25315.26360023  .00004826  00000+0  18476-3 0  9992",
    "TLE_LINE2": "2 58680  43.0021  34.0235 0001606 271.6256  88.4412 15.27580389105537",
    "COMMENT": "Grouped by shell and plane from TLE"
  },
  {
    "OBJECT_NAME": "STARLINK-31147",
    "OBJECT_ID": "23211Q",
    "EPOCH": "2025-11-11T05:07:37.688160",
    "MEAN_MOTION": 15.27579966,
    "ECCENTRICITY": 9.55e-05,
    "INCLINATION": 43.0013,
    "RA_OF_ASC_NODE": 34.5099,
    "ARG_OF_PERICENTER": 341.2515,
    "MEAN_ANOMALY": 18.8301,
    "EPHEMERIS_TYPE": 0,
    "CLASSIFICATION_TYPE": "U",
    "NORAD_CAT_ID": 58681,
    "ELEMENT_SET_NO": 999,
    "REV_AT_EPOCH": 10434,
    "BSTAR": 0.0,
    "MEAN_MOTION_DOT": -6.25e-06,
    "MEAN_MOTION_DDOT": 0.0,
    "TLE_LINE1": "1 58681U 23211Q   25315.21363065 -.00000625  00000+0 -13189-4 0  9999",
    "TLE_LINE2": "2 58681  43.0013  34.5099 0000955 341.2515  18.8301 15.27579966104341",
    "COMMENT": "Grouped by shell and plane from TLE"
  },
  {
    "OBJECT_NAME": "STARLINK-31144",
    "OBJECT_ID": "23211R",
    "EPOCH": "2025-11-11T07:14:52.408608",
    "MEAN_MOTION": 15.27586152,
    "ECCENTRICITY": 0.0001118,
    "INCLINATION": 42.9978,
    "RA_OF_ASC_NODE": 33.4416,
    "ARG_OF_PERICENTER": 278.1532,
    "MEAN_ANOMALY": 81.9193,
    "EPHEMERIS_TYPE": 0,
    "CLASSIFICATION_TYPE": "U",
    "NORAD_CAT_ID": 58682,
    "ELEMENT_SET_NO": 999,
    "REV_AT_EPOCH": 10436,
    "BSTAR": 0.0,
    "MEAN_MOTION_DOT": -7.36e-06,
    "MEAN_MOTION_DDOT": 0.0,
    "TLE_LINE1": "1 58682U 23211R   25315.30199547 -.00000736  00000+0 -17225-4 0  9990",
    "TLE_LINE2": "2 58682  42.9978  33.4416 0001118 278.1532  81.9193 15.27586152104367",
    "COMMENT": "Grouped by shell and plane from TLE"
  },
  {
    "OBJECT_NAME": "STARLINK-31095",
    "OBJECT_ID": "23211S",
    "EPOCH": "2025-11-11T07:00:17.482464",
    "MEAN_MOTION": 15.27575016,
    "ECCENTRICITY": 0.0001312,
    "INCLINATION": 43.0039,
    "RA_OF_ASC_NODE": 34.2336,
    "ARG_OF_PERICENTER": 281.5418,
    "MEAN_ANOMALY": 78.5286,
    "EPHEMERIS_TYPE": 0,
    "CLASSIFICATION_TYPE": "U",
    "NORAD_CAT_ID": 58683,
    "ELEMENT_SET_NO": 999,
    "REV_AT_EPOCH": 10562,
    "BSTAR": 4.8876e-05,
    "MEAN_MOTION_DOT": 1.083e-05,
    "MEAN_MOTION_DDOT": 0.0,
    "TLE_LINE1": "1 58683U 23211S   25315.29186901  .00001083  00000+0  48876-4 0  9999",
    "TLE_LINE2": "2 58683  43.0039  34.2336 0001312 281.5418  78.5286 15.27575016105627",
    "COMMENT": "Grouped by shell and plane from TLE"
  },
  {
    "OBJECT_NAME": "STARLINK-31107",
    "OBJECT_ID": "23211T",
    "EPOCH": "2025-11-11T05:35:22.821792",
    "MEAN_MOTION": 15.27575653,
    "ECCENTRICITY": 0.00019,
    "INCLINATION": 42.9996,
    "RA_OF_ASC_NODE": 34.6469,
    "ARG_OF_PERICENTER": 256.1077,
    "MEAN_ANOMALY": 103.9563,
    "EPHEMERIS_TYPE": 0,
    "CLASSIFICATION_TYPE": "U",
    "NORAD_CAT_ID": 58684,
    "ELEMENT_SET_NO": 999,
    "REV_AT_EPOCH": 10434,
    "BSTAR": 0.00010559000000000001,
    "MEAN_MOTION_DOT": 2.644e-05,
    "MEAN_MOTION_DDOT": 0.0,
    "TLE_LINE1": "1 58684U 23211T   25315.23290303  .00002644  00000+0  10559-3 0  9996",
    "TLE_LINE2": "2 58684  42.9996  34.6469 0001900 256.1077 103.9563 15.27575653104347",
    "COMMENT": "Grouped by shell and plane from TLE"
  },
  {
    "OBJECT_NAME": "STARLINK-31121",
    "OBJECT_ID": "23211U",
    "EPOCH": "2025-11-11T05:46:15.128832",
    "MEAN_MOTION": 15.27601244,
    "ECCENTRICITY": 0.0001526,
    "INCLINATION": 43.0018,
    "RA_OF_ASC_NODE": 33.8421,
    "ARG_OF_PERICENTER": 288.2804,
    "MEAN_ANOMALY": 71.7881,
    "EPHEMERIS_TYPE": 0,
    "CLASSIFICATION_TYPE": "U",
    "NORAD_CAT_ID": 58685,
    "ELEMENT_SET_NO": 999,
    "REV_AT_EPOCH": 10435,
    "BSTAR": 0.0001837,
    "MEAN_MOTION_DOT": 4.799e-05,
    "MEAN_MOTION_DDOT": 0.0,
    "TLE_LINE1": "1 58685U 23211U   25315.24045288  .00004799  00000+0  18370-3 0  9990",
    "TLE_LINE2": "2 58685  43.0018  33.8421 0001526 288.2804  71.7881 15.27601244104354",
    "COMMENT": "Grouped by shell and plane from TLE"
  },
  {
    "OBJECT_NAME": "STARLINK-31137",
    "OBJECT_ID": "23211V",
    "EPOCH": "2025-11-11T05:03:54.174816",
    "MEAN_MOTION": 15.27603233,
    "ECCENTRICITY": 0.0005504,
    "INCLINATION": 43.0001,
    "RA_OF_ASC_NODE": 34.4835,
    "ARG_OF_PERICENTER": 112.6585,
    "MEAN_ANOMALY": 247.4849,
    "EPHEMERIS_TYPE": 0,
    "CLASSIFICATION_TYPE": "U",
    "NORAD_CAT_ID": 58686,
    "ELEMENT_SET_NO": 999,
    "REV_AT_EPOCH": 10434,
    "BSTAR": 0.00013083,
    "MEAN_MOTION_DOT": 3.342e-05,
    "MEAN_MOTION_DDOT": 0.0,
    "TLE_LINE1": "1 58686U 23211V   25315.21104369  .00003342  00000+0  13083-3 0  9993",
    "TLE_LINE2": "2 58686  43.0001  34.4835 0005504 112.6585 247.4849 15.27603233104344",
    "COMMENT": "Grouped by shell and plane from TLE"
  },
  {
    "OBJECT_NAME": "STARLINK-31139",
    "OBJECT_ID": "23211X",
    "EPOCH": "2025-11-11T07:03:02.236032",
    "MEAN_MOTION": 15.3477409,
    "ECCENTRICITY": 0.0007742,
    "INCLINATION": 42.9975,
    "RA_OF_ASC_NODE": 32.5425,
    "ARG_OF_PERICENTER": 25.6842,
    "MEAN_ANOMALY": 334.4396,
    "EPHEMERIS_TYPE": 0,
    "CLASSIFICATION_TYPE": "U",
    "NORAD_CAT_ID": 58688,
    "ELEMENT_SET_NO": 999,
    "REV_AT_EPOCH": 10437,
    "BSTAR": 0.0021522,
    "MEAN_MOTION_DOT": 0.00074647,
    "MEAN_MOTION_DDOT": 0.0,
    "TLE_LINE1": "1 58688U 23211X   25315.29377588  .00074647  00000+0  21522-2 0  9990",
    "TLE_LINE2": "2 58688  42.9975  32.5425 0007742  25.6842 334.4396 15.34774090104378",
    "COMMENT": "Grouped by shell and plane from TLE"
  },
  {
    "OBJECT_NAME": "STARLINK-31106",
    "OBJECT_ID": "23211Y",
    "EPOCH": "2025-11-11T06:26:58.563168",
    "MEAN_MOTION": 15.27577981,
    "ECCENTRICITY": 0.0001374,
    "INCLINATION": 43.0027,
    "RA_OF_ASC_NODE": 34.0552,
    "ARG_OF_PERICENTER": 268.014,
    "MEAN_ANOMALY": 92.0555,
    "EPHEMERIS_TYPE": 0,
    "CLASSIFICATION_TYPE": "U",
    "NORAD_CAT_ID": 58689,
    "ELEMENT_SET_NO": 999,
    "REV_AT_EPOCH": 10435,
    "BSTAR": 3.7429000000000004e-05,
    "MEAN_MOTION_DOT": 7.68e-06,
    "MEAN_MOTION_DDOT": 0.0,
    "TLE_LINE1": "1 58689U 23211Y   25315.26873337  .00000768  00000+0  37429-4 0  9999",
    "TLE_LINE2": "2 58689  43.0027  34.0552 0001374 268.0140  92.0555 15.27577981104350",
    "COMMENT": "Grouped by shell and plane from TLE"
  },
  {
    "OBJECT_NAME": "STARLINK-31233",
    "OBJECT_ID": "24017A",
    "EPOCH": "2025-11-11T06:03:12.788640",
    "MEAN_MOTION": 15.30189179,
    "ECCENTRICITY": 7.98e-05,
    "INCLINATION": 53.1618,
    "RA_OF_ASC_NODE": 34.4069,
    "ARG_OF_PERICENTER": 62.2216,
    "MEAN_ANOMALY": 297.8865,
    "EPHEMERIS_TYPE": 0,
    "CLASSIFICATION_TYPE": "U",
    "NORAD_CAT_ID": 58826,
    "ELEMENT_SET_NO": 999,
    "REV_AT_EPOCH": 10204,
    "BSTAR": 0.00015189,
    "MEAN_MOTION_DOT": 4.141e-05,
    "MEAN_MOTION_DDOT": 0.0,
    "TLE_LINE1": "1 58826U 24017A   25315.25223135  .00004141  00000+0  15189-3 0  9998",
    "TLE_LINE2": "2 58826  53.1618  34.4069 0000798  62.2216 297.8865 15.30189179102040",
    "COMMENT": "Grouped by shell and plane from TLE"
  }
]